[
    {
        "OBJECT_NAME": "MOVE-IIB",
        "OBJECT_ID": "2019-038N",
        "EPOCH": "2022-12-30T03:11:39.323328",
        "MEAN_MOTION": 15.24592615,
        "ECCENTRICITY": 0.0018884,
        "INCLINATION": 97.6498,
        "RA_OF_ASC_NODE": 336.2487,
        "ARG_OF_PERICENTER": 162.3874,
        "MEAN_ANOMALY": 197.8024,
        "EPHEMERIS_TYPE": 0,
        "CLASSIFICATION_TYPE": "U",
        "NORAD_CAT_ID": 44398,
        "ELEMENT_SET_NO": 999,
        "REV_AT_EPOCH": 19278,
        "BSTAR": 0.00076981,
        "MEAN_MOTION_DOT": 0.00019028,
        "MEAN_MOTION_DDOT": 0
    },
    {
        "OBJECT_NAME": "SONATE",
        "OBJECT_ID": "2019-038Q",
        "EPOCH": "2023-01-02T09:08:40.931520",
        "MEAN_MOTION": 15.16952908,
        "ECCENTRICITY": 0.0022834,
        "INCLINATION": 97.6658,
        "RA_OF_ASC_NODE": 337.3519,
        "ARG_OF_PERICENTER": 162.3386,
        "MEAN_ANOMALY": 197.8646,
        "EPHEMERIS_TYPE": 0,
        "CLASSIFICATION_TYPE": "U",
        "NORAD_CAT_ID": 44400,
        "ELEMENT_SET_NO": 999,
        "REV_AT_EPOCH": 19306,
        "BSTAR": 0.00039018,
        "MEAN_MOTION_DOT": 7.682e-5,
        "MEAN_MOTION_DDOT": 0
    },
    {
        "OBJECT_NAME": "LUCKY-7",
        "OBJECT_ID": "2019-038W",
        "EPOCH": "2023-01-02T11:54:15.037632",
        "MEAN_MOTION": 15.18361452,
        "ECCENTRICITY": 0.0021847,
        "INCLINATION": 97.6632,
        "RA_OF_ASC_NODE": 338.2643,
        "ARG_OF_PERICENTER": 158.4573,
        "MEAN_ANOMALY": 201.7584,
        "EPHEMERIS_TYPE": 0,
        "CLASSIFICATION_TYPE": "U",
        "NORAD_CAT_ID": 44406,
        "ELEMENT_SET_NO": 999,
        "REV_AT_EPOCH": 19313,
        "BSTAR": 0.00039256,
        "MEAN_MOTION_DOT": 8.046e-5,
        "MEAN_MOTION_DDOT": 0
    },
    {
        "OBJECT_NAME": "BEESAT 9",
        "OBJECT_ID": "2019-038AC",
        "EPOCH": "2023-01-01T23:45:23.989536",
        "MEAN_MOTION": 15.20919826,
        "ECCENTRICITY": 0.0018929,
        "INCLINATION": 97.6593,
        "RA_OF_ASC_NODE": 338.5039,
        "ARG_OF_PERICENTER": 161.03,
        "MEAN_ANOMALY": 199.1644,
        "EPHEMERIS_TYPE": 0,
        "CLASSIFICATION_TYPE": "U",
        "NORAD_CAT_ID": 44412,
        "ELEMENT_SET_NO": 999,
        "REV_AT_EPOCH": 19282,
        "BSTAR": 0.00062299,
        "MEAN_MOTION_DOT": 0.0001379,
        "MEAN_MOTION_DDOT": 0
    },
    {
        "OBJECT_NAME": "JAISAT-1",
        "OBJECT_ID": "2019-038F",
        "EPOCH": "2023-01-02T09:00:25.799040",
        "MEAN_MOTION": 15.21371055,
        "ECCENTRICITY": 0.0018161,
        "INCLINATION": 97.6592,
        "RA_OF_ASC_NODE": 339.8824,
        "ARG_OF_PERICENTER": 156.2853,
        "MEAN_ANOMALY": 203.9223,
        "EPHEMERIS_TYPE": 0,
        "CLASSIFICATION_TYPE": "U",
        "NORAD_CAT_ID": 44419,
        "ELEMENT_SET_NO": 999,
        "REV_AT_EPOCH": 19325,
        "BSTAR": 0.00063872,
        "MEAN_MOTION_DOT": 0.00014324,
        "MEAN_MOTION_DDOT": 0
    },
    {
        "OBJECT_NAME": "DUCHIFAT-3",
        "OBJECT_ID": "2019-089C",
        "EPOCH": "2023-01-02T09:29:44.902176",
        "MEAN_MOTION": 15.02810619,
        "ECCENTRICITY": 0.0006361,
        "INCLINATION": 36.9665,
        "RA_OF_ASC_NODE": 359.6108,
        "ARG_OF_PERICENTER": 31.808,
        "MEAN_ANOMALY": 115.9653,
        "EPHEMERIS_TYPE": 0,
        "CLASSIFICATION_TYPE": "U",
        "NORAD_CAT_ID": 44854,
        "ELEMENT_SET_NO": 999,
        "REV_AT_EPOCH": 16785,
        "BSTAR": 0.0004511,
        "MEAN_MOTION_DOT": 6.083e-5,
        "MEAN_MOTION_DDOT": 0
    },
    {
        "OBJECT_NAME": "EYESAT-NANO",
        "OBJECT_ID": "2019-092E",
        "EPOCH": "2023-01-02T12:01:57.585216",
        "MEAN_MOTION": 15.27747275,
        "ECCENTRICITY": 0.0011152,
        "INCLINATION": 97.4579,
        "RA_OF_ASC_NODE": 191.1316,
        "ARG_OF_PERICENTER": 22.2139,
        "MEAN_ANOMALY": 337.9581,
        "EPHEMERIS_TYPE": 0,
        "CLASSIFICATION_TYPE": "U",
        "NORAD_CAT_ID": 44877,
        "ELEMENT_SET_NO": 999,
        "REV_AT_EPOCH": 16869,
        "BSTAR": 0.0007649,
        "MEAN_MOTION_DOT": 0.00020731,
        "MEAN_MOTION_DDOT": 0
    },
    {
        "OBJECT_NAME": "ORBITAL FACTORY 2 (OF-2)",
        "OBJECT_ID": "2019-071C",
        "EPOCH": "2023-01-02T10:00:33.297984",
        "MEAN_MOTION": 15.62621465,
        "ECCENTRICITY": 0.0008654,
        "INCLINATION": 51.6314,
        "RA_OF_ASC_NODE": 150.8121,
        "ARG_OF_PERICENTER": 201.8979,
        "MEAN_ANOMALY": 158.1646,
        "EPHEMERIS_TYPE": 0,
        "CLASSIFICATION_TYPE": "U",
        "NORAD_CAT_ID": 45113,
        "ELEMENT_SET_NO": 999,
        "REV_AT_EPOCH": 16427,
        "BSTAR": 0.0010878,
        "MEAN_MOTION_DOT": 0.00100079,
        "MEAN_MOTION_DDOT": 0
    },
    {
        "OBJECT_NAME": "M2 PATHFINDER",
        "OBJECT_ID": "2020-037E",
        "EPOCH": "2023-01-02T05:30:13.087296",
        "MEAN_MOTION": 14.926706,
        "ECCENTRICITY": 0.0013747,
        "INCLINATION": 97.7423,
        "RA_OF_ASC_NODE": 179.2968,
        "ARG_OF_PERICENTER": 95.4977,
        "MEAN_ANOMALY": 264.7875,
        "EPHEMERIS_TYPE": 0,
        "CLASSIFICATION_TYPE": "U",
        "NORAD_CAT_ID": 45727,
        "ELEMENT_SET_NO": 999,
        "REV_AT_EPOCH": 13647,
        "BSTAR": 0.00027074,
        "MEAN_MOTION_DOT": 2.739e-5,
        "MEAN_MOTION_DDOT": 0
    },
    {
        "OBJECT_NAME": "NETSAT-4",
        "OBJECT_ID": "2020-068U",
        "EPOCH": "2023-01-02T15:13:44.287104",
        "MEAN_MOTION": 15.04821081,
        "ECCENTRICITY": 0.0012423,
        "INCLINATION": 97.7431,
        "RA_OF_ASC_NODE": 307.4078,
        "ARG_OF_PERICENTER": 19.4857,
        "MEAN_ANOMALY": 340.6843,
        "EPHEMERIS_TYPE": 0,
        "CLASSIFICATION_TYPE": "U",
        "NORAD_CAT_ID": 46504,
        "ELEMENT_SET_NO": 999,
        "REV_AT_EPOCH": 12398,
        "BSTAR": 0.00038444,
        "MEAN_MOTION_DOT": 5.376e-5,
        "MEAN_MOTION_DDOT": 0
    },
    {
        "OBJECT_NAME": "NETSAT-3",
        "OBJECT_ID": "2020-068V",
        "EPOCH": "2023-01-02T14:08:50.393760",
        "MEAN_MOTION": 15.04757526,
        "ECCENTRICITY": 0.0011339,
        "INCLINATION": 97.7425,
        "RA_OF_ASC_NODE": 307.2478,
        "ARG_OF_PERICENTER": 29.024,
        "MEAN_ANOMALY": 331.1726,
        "EPHEMERIS_TYPE": 0,
        "CLASSIFICATION_TYPE": "U",
        "NORAD_CAT_ID": 46505,
        "ELEMENT_SET_NO": 999,
        "REV_AT_EPOCH": 12398,
        "BSTAR": 0.00036108,
        "MEAN_MOTION_DOT": 5.035e-5,
        "MEAN_MOTION_DDOT": 0
    },
    {
        "OBJECT_NAME": "NETSAT-1",
        "OBJECT_ID": "2020-068W",
        "EPOCH": "2023-01-02T14:43:25.807296",
        "MEAN_MOTION": 15.04696328,
        "ECCENTRICITY": 0.0010505,
        "INCLINATION": 97.7436,
        "RA_OF_ASC_NODE": 307.1834,
        "ARG_OF_PERICENTER": 36.3784,
        "MEAN_ANOMALY": 323.8173,
        "EPHEMERIS_TYPE": 0,
        "CLASSIFICATION_TYPE": "U",
        "NORAD_CAT_ID": 46506,
        "ELEMENT_SET_NO": 999,
        "REV_AT_EPOCH": 12398,
        "BSTAR": 0.00030737,
        "MEAN_MOTION_DOT": 4.268e-5,
        "MEAN_MOTION_DDOT": 0
    }
]