JAISAT-1                
1 44419U 19038F   23002.37529860  .00014324  00000+0  63872-3 0  9992
2 44419  97.6592 339.8824 0018161 156.2853 203.9223 15.21371055193257
DUCHIFAT-3              
1 44854U 19089C   23002.39565859  .00006083  00000+0  45110-3 0  9999
2 44854  36.9665 359.6108 0006361  31.8080 115.9653 15.02810619167850
ORBITAL FACTORY 2 (OF-2)
1 45113U 19071C   23002.41705206  .00100079  00000+0  10878-2 0  9996
2 45113  51.6314 150.8121 0008654 201.8979 158.1646 15.62621465164272
MOVE-IIB                
1 44398U 19038N   22364.13309402  .00019028  00000+0  76981-3 0  9991
2 44398  97.6498 336.2487 0018884 162.3874 197.8024 15.24592615192784
SONATE                  
1 44400U 19038Q   23002.38102930  .00007682  00000+0  39018-3 0  9992
2 44400  97.6658 337.3519 0022834 162.3386 197.8646 15.16952908193060
LUCKY-7                 
1 44406U 19038W   23002.49600738  .00008046  00000+0  39256-3 0  9998
2 44406  97.6632 338.2643 0021847 158.4573 201.7584 15.18361452193137
BEESAT 9                
1 44412U 19038AC  23001.98986099  .00013790  00000+0  62299-3 0  9990
2 44412  97.6593 338.5039 0018929 161.0300 199.1644 15.20919826192826
EYESAT-NANO             
1 44877U 19092E   23002.50136094  .00020731  00000+0  76490-3 0  9997
2 44877  97.4579 191.1316 0011152  22.2139 337.9581 15.27747275168697
M2 PATHFINDER           
1 45727U 20037E   23002.22931814  .00002739  00000+0  27074-3 0  9997
2 45727  97.7423 179.2968 0013747  95.4977 264.7875 14.92670600136479
NETSAT-4                
1 46504U 20068U   23002.63454036  .00005376  00000+0  38444-3 0  9999
2 46504  97.7431 307.4078 0012423  19.4857 340.6843 15.04821081123988
NETSAT-3                
1 46505U 20068V   23002.58947215  .00005035  00000+0  36108-3 0  9997
2 46505  97.7425 307.2478 0011339  29.0240 331.1726 15.04757526123989
NETSAT-1                
1 46506U 20068W   23002.61349314  .00004268  00000+0  30737-3 0  9997
2 46506  97.7436 307.1834 0010505  36.3784 323.8173 15.04696328123981
